{"type": "FeatureCollection", "features": [ {"type": "Feature", "properties": {"norad_id": 66503, "name": "STARLINK-35917", "group": "last-30-days", "lat": -40.6568284417377, "lon": 75.64691342757612, "alt_km": 417.3628166514027, "timestamp": "2025-12-09T16:56:35.358617+00:00", "meta": {"OBJECT_NAME": "STARLINK-35917", "OBJECT_ID": "2025-263U", "EPOCH": "2025-12-09T06:00:02.000160", "MEAN_MOTION": 15.50595058, "ECCENTRICITY": 0.00016709, "INCLINATION": 43.0005, "RA_OF_ASC_NODE": 145.4785, "ARG_OF_PERICENTER": 279.0144, "MEAN_ANOMALY": 340.0209, "EPHEMERIS_TYPE": 0, "CLASSIFICATION_TYPE": "U", "NORAD_CAT_ID": 66503, "ELEMENT_SET_NO": 999, "REV_AT_EPOCH": 507, "BSTAR": -0.001563883, "MEAN_MOTION_DOT": -0.00091081, "MEAN_MOTION_DDOT": 0}, "tle": {"line1": "1 66503U 25263U   25343.25002315 -.00091081  00000+0 -15639-2 0  9999", "line2": "2 66503  43.0005 145.4785 0001670 279.0144 340.0209 15.50595058  5072"}}, "geometry": {"type": "Point", "coordinates": [75.64691342757612, -40.6568284417377]}}, {"type": "Feature", "properties": {"norad_id": 66504, "name": "STARLINK-35916", "group": "last-30-days", "lat": 37.28637877351962, "lon": -90.68160632732302, "alt_km": 438.9650591179052, "timestamp": "2025-12-09T16:56:35.358627+00:00", "meta": {"OBJECT_NAME": "STARLINK-35916", "OBJECT_ID": "2025-263V", "EPOCH": "2025-12-09T12:00:02.000160", "MEAN_MOTION": 15.40650197, "ECCENTRICITY": 0.000141, "INCLINATION": 43.0003, "RA_OF_ASC_NODE": 145.3003, "ARG_OF_PERICENTER": 259.8258, "MEAN_ANOMALY": 153.8609, "EPHEMERIS_TYPE": 0, "CLASSIFICATION_TYPE": "U", "NORAD_CAT_ID": 66504, "ELEMENT_SET_NO": 999, "REV_AT_EPOCH": 511, "BSTAR": 0.0012635, "MEAN_MOTION_DOT": 0.00052756, "MEAN_MOTION_DDOT": 0}, "tle": {"line1": "1 66504U 25263V   25343.50002315  .00052756  00000+0  12635-2 0  9995", "line2": "2 66504  43.0003 145.3003 0001410 259.8258 153.8609 15.40650197  5111"}}, "geometry": {"type": "Point", "coordinates": [-90.68160632732302, 37.28637877351962]}}, {"type": "Feature", "properties": {"norad_id": 66505, "name": "STARLINK-34766", "group": "last-30-days", "lat": -42.25448864569725, "lon": 65.69559234179859, "alt_km": 417.32934351490076, "timestamp": "2025-12-09T16:56:35.358637+00:00", "meta": {"OBJECT_NAME": "STARLINK-34766", "OBJECT_ID": "2025-263W", "EPOCH": "2025-12-09T12:00:02.000160", "MEAN_MOTION": 15.50568438, "ECCENTRICITY": 0.0001627, "INCLINATION": 43.0005, "RA_OF_ASC_NODE": 144.0373, "ARG_OF_PERICENTER": 275.9356, "MEAN_ANOMALY": 292.6137, "EPHEMERIS_TYPE": 0, "CLASSIFICATION_TYPE": "U", "NORAD_CAT_ID": 66505, "ELEMENT_SET_NO": 999, "REV_AT_EPOCH": 511, "BSTAR": -0.00045216, "MEAN_MOTION_DOT": -0.00026767, "MEAN_MOTION_DDOT": 0}, "tle": {"line1": "1 66505U 25263W   25343.50002315 -.00026767  00000+0 -45216-3 0  9993", "line2": "2 66505  43.0005 144.0373 0001627 275.9356 292.6137 15.50568438  5113"}}, "geometry": {"type": "Point", "coordinates": [65.69559234179859, -42.25448864569725]}}, {"type": "Feature", "properties": {"norad_id": 66506, "name": "STARLINK-34765", "group": "last-30-days", "lat": -41.93396173419703, "lon": 68.24810278491013, "alt_km": 417.3851588517591, "timestamp": "2025-12-09T16:56:35.358650+00:00", "meta": {"OBJECT_NAME": "STARLINK-34765", "OBJECT_ID": "2025-263X", "EPOCH": "2025-12-09T12:00:02.000160", "MEAN_MOTION": 15.50579384, "ECCENTRICITY": 0.0001533, "INCLINATION": 43.0005, "RA_OF_ASC_NODE": 144.0328, "ARG_OF_PERICENTER": 273.4878, "MEAN_ANOMALY": 296.9836, "EPHEMERIS_TYPE": 0, "CLASSIFICATION_TYPE": "U", "NORAD_CAT_ID": 66506, "ELEMENT_SET_NO": 999, "REV_AT_EPOCH": 511, "BSTAR": -0.0009299, "MEAN_MOTION_DOT": -0.00054517, "MEAN_MOTION_DDOT": 0}, "tle": {"line1": "1 66506U 25263X   25343.50002315 -.00054517  00000+0 -92990-3 0  9999", "line2": "2 66506  43.0005 144.0328 0001533 273.4878 296.9836 15.50579384  5117"}}, "geometry": {"type": "Point", "coordinates": [68.24810278491013, -41.93396173419703]}}, {"type": "Feature", "properties": {"norad_id": 66507, "name": "STARLINK-34767", "group": "last-30-days", "lat": -41.13024252508792, "lon": 73.23923616025758, "alt_km": 417.47925723469325, "timestamp": "2025-12-09T16:56:35.358661+00:00", "meta": {"OBJECT_NAME": "STARLINK-34767", "OBJECT_ID": "2025-263Y", "EPOCH": "2025-12-09T12:00:02.000160", "MEAN_MOTION": 15.50609497, "ECCENTRICITY": 0.0001374, "INCLINATION": 43.0004, "RA_OF_ASC_NODE": 144.021, "ARG_OF_PERICENTER": 260.6368, "MEAN_ANOMALY": 313.649, "EPHEMERIS_TYPE": 0, "CLASSIFICATION_TYPE": "U", "NORAD_CAT_ID": 66507, "ELEMENT_SET_NO": 999, "REV_AT_EPOCH": 511, "BSTAR": -0.0015159, "MEAN_MOTION_DOT": -0.00088373, "MEAN_MOTION_DDOT": 0}, "tle": {"line1": "1 66507U 25263Y   25343.50002315 -.00088373  00000+0 -15159-2 0  9998", "line2": "2 66507  43.0004 144.0210 0001374 260.6368 313.6490 15.50609497  5114"}}, "geometry": {"type": "Point", "coordinates": [73.23923616025758, -41.13024252508792]}}, {"type": "Feature", "properties": {"norad_id": 66508, "name": "STARLINK-35608", "group": "last-30-days", "lat": -39.53452092632205, "lon": 80.46535876900616, "alt_km": 417.32487510412193, "timestamp": "2025-12-09T16:56:35.358673+00:00", "meta": {"OBJECT_NAME": "STARLINK-35608", "OBJECT_ID": "2025-263Z", "EPOCH": "2025-12-09T12:00:02.000160", "MEAN_MOTION": 15.50583572, "ECCENTRICITY": 0.0001497, "INCLINATION": 43.0003, "RA_OF_ASC_NODE": 144.0083, "ARG_OF_PERICENTER": 275.1145, "MEAN_ANOMALY": 304.9389, "EPHEMERIS_TYPE": 0, "CLASSIFICATION_TYPE": "U", "NORAD_CAT_ID": 66508, "ELEMENT_SET_NO": 999, "REV_AT_EPOCH": 511, "BSTAR": -0.00101, "MEAN_MOTION_DOT": -0.00059156, "MEAN_MOTION_DDOT": 0}, "tle": {"line1": "1 66508U 25263Z   25343.50002315 -.00059156  00000+0 -10100-2 0  9997", "line2": "2 66508  43.0003 144.0083 0001497 275.1145 304.9389 15.50583572  5117"}}, "geometry": {"type": "Point", "coordinates": [80.46535876900616, -39.53452092632205]}}, {"type": "Feature", "properties": {"norad_id": 66509, "name": "STARLINK-35598", "group": "last-30-days", "lat": -36.750710138522095, "lon": 89.52147881850141, "alt_km": 417.3173708235181, "timestamp": "2025-12-09T16:56:35.358683+00:00", "meta": {"OBJECT_NAME": "STARLINK-35598", "OBJECT_ID": "2025-263AA", "EPOCH": "2025-12-09T12:00:02.000160", "MEAN_MOTION": 15.50558665, "ECCENTRICITY": 0.0001481, "INCLINATION": 43.0003, "RA_OF_ASC_NODE": 143.9866, "ARG_OF_PERICENTER": 264.9663, "MEAN_ANOMALY": 322.7591, "EPHEMERIS_TYPE": 0, "CLASSIFICATION_TYPE": "U", "NORAD_CAT_ID": 66509, "ELEMENT_SET_NO": 999, "REV_AT_EPOCH": 511, "BSTAR": 0.0002452, "MEAN_MOTION_DOT": 0.00014058, "MEAN_MOTION_DDOT": 0}, "tle": {"line1": "1 66509U 25263AA  25343.50002315  .00014058  00000+0  24520-3 0  9990", "line2": "2 66509  43.0003 143.9866 0001481 264.9663 322.7591 15.50558665  5117"}}, "geometry": {"type": "Point", "coordinates": [89.52147881850141, -36.750710138522095]}}, {"type": "Feature", "properties": {"norad_id": 66510, "name": "STARLINK-35600", "group": "last-30-days", "lat": -38.90414488510273, "lon": 82.79692013443055, "alt_km": 417.4593222590538, "timestamp": "2025-12-09T16:56:35.358694+00:00", "meta": {"OBJECT_NAME": "STARLINK-35600", "OBJECT_ID": "2025-263AB", "EPOCH": "2025-12-09T12:00:02.000160", "MEAN_MOTION": 15.50581965, "ECCENTRICITY": 0.0001393, "INCLINATION": 43.0003, "RA_OF_ASC_NODE": 144.0024, "ARG_OF_PERICENTER": 262.7329, "MEAN_ANOMALY": 319.2389, "EPHEMERIS_TYPE": 0, "CLASSIFICATION_TYPE": "U", "NORAD_CAT_ID": 66510, "ELEMENT_SET_NO": 999, "REV_AT_EPOCH": 511, "BSTAR": -0.0010533, "MEAN_MOTION_DOT": -0.00061655, "MEAN_MOTION_DDOT": 0}, "tle": {"line1": "1 66510U 25263AB  25343.50002315 -.00061655  00000+0 -10533-2 0  9997", "line2": "2 66510  43.0003 144.0024 0001393 262.7329 319.2389 15.50581965  5119"}}, "geometry": {"type": "Point", "coordinates": [82.79692013443055, -38.90414488510273]}}, {"type": "Feature", "properties": {"norad_id": 66511, "name": "STARLINK-35444", "group": "last-30-days", "lat": -37.51047493935004, "lon": 87.32623093274168, "alt_km": 417.3293909726999, "timestamp": "2025-12-09T16:56:35.358704+00:00", "meta": {"OBJECT_NAME": "STARLINK-35444", "OBJECT_ID": "2025-263AC", "EPOCH": "2025-12-09T12:00:02.000160", "MEAN_MOTION": 15.50580688, "ECCENTRICITY": 0.000145, "INCLINATION": 43.0003, "RA_OF_ASC_NODE": 143.993, "ARG_OF_PERICENTER": 269.7953, "MEAN_ANOMALY": 316.0109, "EPHEMERIS_TYPE": 0, "CLASSIFICATION_TYPE": "U", "NORAD_CAT_ID": 66511, "ELEMENT_SET_NO": 999, "REV_AT_EPOCH": 511, "BSTAR": -0.00093508, "MEAN_MOTION_DOT": -0.00054819, "MEAN_MOTION_DDOT": 0}, "tle": {"line1": "1 66511U 25263AC  25343.50002315 -.00054819  00000+0 -93508-3 0  9996", "line2": "2 66511  43.0003 143.9930 0001450 269.7953 316.0109 15.50580688  5114"}}, "geometry": {"type": "Point", "coordinates": [87.32623093274168, -37.51047493935004]}}, {"type": "Feature", "properties": {"norad_id": 66512, "name": "STARLINK-35366", "group": "last-30-days", "lat": -35.950535008699376, "lon": 91.67694970113553, "alt_km": 417.3122217059099, "timestamp": "2025-12-09T16:56:35.358717+00:00", "meta": {"OBJECT_NAME": "STARLINK-35366", "OBJECT_ID": "2025-263AD", "EPOCH": "2025-12-09T12:00:02.000160", "MEAN_MOTION": 15.5057338, "ECCENTRICITY": 0.0001421, "INCLINATION": 43.0003, "RA_OF_ASC_NODE": 143.983, "ARG_OF_PERICENTER": 268.7355, "MEAN_ANOMALY": 320.9048, "EPHEMERIS_TYPE": 0, "CLASSIFICATION_TYPE": "U", "NORAD_CAT_ID": 66512, "ELEMENT_SET_NO": 999, "REV_AT_EPOCH": 511, "BSTAR": -0.0006843, "MEAN_MOTION_DOT": -0.00040272, "MEAN_MOTION_DDOT": 0}, "tle": {"line1": "1 66512U 25263AD  25343.50002315 -.00040272  00000+0 -68430-3 0  9991", "line2": "2 66512  43.0003 143.9830 0001421 268.7355 320.9048 15.50573380  5114"}}, "geometry": {"type": "Point", "coordinates": [91.67694970113553, -35.950535008699376]}}]}